{
  "norad_id": 63699,
  "name": "STARLINK-33919",
  "history": [
    {
      "epoch": "2026-03-28T19:42:23.236128Z",
      "apogee_km": 476.323845913882,
      "perigee_km": 474.0760884553856,
      "latitude_deg": 2.708685328496935e-05,
      "longitude_deg": 9.220551758087016,
      "height_km": 475.86947290736026,
      "semi_major_axis_km": 6853.336967184634,
      "eccentricity": 0.00016399,
      "inclination_deg": 53.1594,
      "raan_deg": 131.0534,
      "arg_perigee_deg": 78.2932,
      "mean_anomaly_deg": 281.8253,
      "mean_motion_rev_day": 15.30205058
    }
  ]
}